<?xml version="1.0" encoding="UTF-8"?>
<gpx xmlns="http://www.topografix.com/GPX/1/1" xmlns:gpxtpx="http://www.garmin.com/xmlschemas/TrackPointExtension/v1" xmlns:xsi="http://www.w3.org/2001/XMLSchema-instance" xsi:schemaLocation="http://www.topografix.com/GPX/1/1 http://www.topografix.com/GPX/1/1/gpx.xsd" version="1.1" creator="gpx.py -- https://github.com/tkrajina/gpxpy">
  <trk>
    <name>gpx from keep</name>
    <type>Run</type>
    <trkseg>
      <trkpt lat="31.21806859733036" lon="121.26263495717852">
        <ele>4.8</ele>
        <time>2026-07-30T21:27:42Z</time>
        <extensions>
          <gpxtpx:TrackPointExtension>
            <gpxtpx:hr>85</gpxtpx:hr>
          </gpxtpx:TrackPointExtension>
        </extensions>
      </trkpt>
      <trkpt lat="31.21810050435657" lon="121.26261787386231">
        <ele>4.8</ele>
        <time>2026-07-30T21:27:44Z</time>
        <extensions>
          <gpxtpx:TrackPointExtension>
            <gpxtpx:hr>85</gpxtpx:hr>
          </gpxtpx:TrackPointExtension>
        </extensions>
      </trkpt>
      <trkpt lat="31.218112512240968" lon="121.26262362059062">
        <ele>4.8</ele>
        <time>2026-07-30T21:27:45Z</time>
        <extensions>
          <gpxtpx:TrackPointExtension>
            <gpxtpx:hr>85</gpxtpx:hr>
          </gpxtpx:TrackPointExtension>
        </extensions>
      </trkpt>
      <trkpt lat="31.218141019527593" lon="121.26264203252211">
        <ele>4.8</ele>
        <time>2026-07-30T21:27:47Z</time>
        <extensions>
          <gpxtpx:TrackPointExtension>
            <gpxtpx:hr>85</gpxtpx:hr>
          </gpxtpx:TrackPointExtension>
        </extensions>
      </trkpt>
      <trkpt lat="31.2181874549141" lon="121.26265222710511">
        <ele>4.8</ele>
        <time>2026-07-30T21:27:49Z</time>
        <extensions>
          <gpxtpx:TrackPointExtension>
            <gpxtpx:hr>94</gpxtpx:hr>
          </gpxtpx:TrackPointExtension>
        </extensions>
      </trkpt>
      <trkpt lat="31.218227932574692" lon="121.26265888807681">
        <ele>4.8</ele>
        <time>2026-07-30T21:27:50Z</time>
        <extensions>
          <gpxtpx:TrackPointExtension>
            <gpxtpx:hr>94</gpxtpx:hr>
          </gpxtpx:TrackPointExtension>
        </extensions>
      </trkpt>
      <trkpt lat="31.218294318524975" lon="121.26267541367271">
        <ele>4.8</ele>
        <time>2026-07-30T21:27:52Z</time>
        <extensions>
          <gpxtpx:TrackPointExtension>
            <gpxtpx:hr>94</gpxtpx:hr>
          </gpxtpx:TrackPointExtension>
        </extensions>
      </trkpt>
      <trkpt lat="31.218349641894378" lon="121.2626870748649">
        <ele>4.8</ele>
        <time>2026-07-30T21:27:53Z</time>
        <extensions>
          <gpxtpx:TrackPointExtension>
            <gpxtpx:hr>94</gpxtpx:hr>
          </gpxtpx:TrackPointExtension>
        </extensions>
      </trkpt>
      <trkpt lat="31.21839223595732" lon="121.26269152009287">
        <ele>4.8</ele>
        <time>2026-07-30T21:27:54Z</time>
        <extensions>
          <gpxtpx:TrackPointExtension>
            <gpxtpx:hr>102</gpxtpx:hr>
          </gpxtpx:TrackPointExtension>
        </extensions>
      </trkpt>
      <trkpt lat="31.218429356246958" lon="121.26269001454409">
        <ele>4.4</ele>
        <time>2026-07-30T21:27:55Z</time>
        <extensions>
          <gpxtpx:TrackPointExtension>
            <gpxtpx:hr>102</gpxtpx:hr>
          </gpxtpx:TrackPointExtension>
        </extensions>
      </trkpt>
      <trkpt lat="31.218461272974604" lon="121.26268765750896">
        <ele>4.4</ele>
        <time>2026-07-30T21:27:56Z</time>
        <extensions>
          <gpxtpx:TrackPointExtension>
            <gpxtpx:hr>102</gpxtpx:hr>
          </gpxtpx:TrackPointExtension>
        </extensions>
      </trkpt>
      <trkpt lat="31.218506908591237" lon="121.26267069903288">
        <ele>4.4</ele>
        <time>2026-07-30T21:27:58Z</time>
        <extensions>
          <gpxtpx:TrackPointExtension>
            <gpxtpx:hr>102</gpxtpx:hr>
          </gpxtpx:TrackPointExtension>
        </extensions>
      </trkpt>
      <trkpt lat="31.218564723015664" lon="121.26262867039046">
        <ele>4.4</ele>
        <time>2026-07-30T21:28:00Z</time>
        <extensions>
          <gpxtpx:TrackPointExtension>
            <gpxtpx:hr>110</gpxtpx:hr>
          </gpxtpx:TrackPointExtension>
        </extensions>
      </trkpt>
      <trkpt lat="31.218615805238365" lon="121.26259123107091">
        <ele>4.4</ele>
        <time>2026-07-30T21:28:02Z</time>
        <extensions>
          <gpxtpx:TrackPointExtension>
            <gpxtpx:hr>110</gpxtpx:hr>
          </gpxtpx:TrackPointExtension>
        </extensions>
      </trkpt>
      <trkpt lat="31.218647462167556" lon="121.26257398663576">
        <ele>4.4</ele>
        <time>2026-07-30T21:28:03Z</time>
        <extensions>
          <gpxtpx:TrackPointExtension>
            <gpxtpx:hr>110</gpxtpx:hr>
          </gpxtpx:TrackPointExtension>
        </extensions>
      </trkpt>
      <trkpt lat="31.21866962029506" lon="121.26257112288748">
        <ele>4.4</ele>
        <time>2026-07-30T21:28:04Z</time>
        <extensions>
          <gpxtpx:TrackPointExtension>
            <gpxtpx:hr>116</gpxtpx:hr>
          </gpxtpx:TrackPointExtension>
        </extensions>
      </trkpt>
      <trkpt lat="31.218684842725047" lon="121.26257729215035">
        <ele>4.5</ele>
        <time>2026-07-30T21:28:06Z</time>
        <extensions>
          <gpxtpx:TrackPointExtension>
            <gpxtpx:hr>116</gpxtpx:hr>
          </gpxtpx:TrackPointExtension>
        </extensions>
      </trkpt>
      <trkpt lat="31.218754272729335" lon="121.26277478417829">
        <ele>4.5</ele>
        <time>2026-07-30T21:28:07Z</time>
        <extensions>
          <gpxtpx:TrackPointExtension>
            <gpxtpx:hr>116</gpxtpx:hr>
          </gpxtpx:TrackPointExtension>
        </extensions>
      </trkpt>
      <trkpt lat="31.218787053530427" lon="121.26285859297072">
        <ele>4.5</ele>
        <time>2026-07-30T21:28:09Z</time>
        <extensions>
          <gpxtpx:TrackPointExtension>
            <gpxtpx:hr>121</gpxtpx:hr>
          </gpxtpx:TrackPointExtension>
        </extensions>
      </trkpt>
      <trkpt lat="31.218836255736946" lon="121.26288087166083">
        <ele>4.5</ele>
        <time>2026-07-30T21:28:10Z</time>
        <extensions>
          <gpxtpx:TrackPointExtension>
            <gpxtpx:hr>121</gpxtpx:hr>
          </gpxtpx:TrackPointExtension>
        </extensions>
      </trkpt>
      <trkpt lat="31.218874378275355" lon="121.2628838014929">
        <ele>4.5</ele>
        <time>2026-07-30T21:28:11Z</time>
        <extensions>
          <gpxtpx:TrackPointExtension>
            <gpxtpx:hr>121</gpxtpx:hr>
          </gpxtpx:TrackPointExtension>
        </extensions>
      </trkpt>
      <trkpt lat="31.218904809682773" lon="121.26287955592989">
        <ele>4.5</ele>
        <time>2026-07-30T21:28:12Z</time>
        <extensions>
          <gpxtpx:TrackPointExtension>
            <gpxtpx:hr>121</gpxtpx:hr>
          </gpxtpx:TrackPointExtension>
        </extensions>
      </trkpt>
      <trkpt lat="31.218932601554865" lon="121.26287196135624">
        <ele>4.5</ele>
        <time>2026-07-30T21:28:13Z</time>
        <extensions>
          <gpxtpx:TrackPointExtension>
            <gpxtpx:hr>121</gpxtpx:hr>
          </gpxtpx:TrackPointExtension>
        </extensions>
      </trkpt>
      <trkpt lat="31.218960429033185" lon="121.2628624667033">
        <ele>4.5</ele>
        <time>2026-07-30T21:28:14Z</time>
        <extensions>
          <gpxtpx:TrackPointExtension>
            <gpxtpx:hr>124</gpxtpx:hr>
          </gpxtpx:TrackPointExtension>
        </extensions>
      </trkpt>
      <trkpt lat="31.21898629972157" lon="121.2628529284881">
        <ele>4.0</ele>
        <time>2026-07-30T21:28:15Z</time>
        <extensions>
          <gpxtpx:TrackPointExtension>
            <gpxtpx:hr>124</gpxtpx:hr>
          </gpxtpx:TrackPointExtension>
        </extensions>
      </trkpt>
      <trkpt lat="31.219012499705883" lon="121.26284291206446">
        <ele>4.0</ele>
        <time>2026-07-30T21:28:16Z</time>
        <extensions>
          <gpxtpx:TrackPointExtension>
            <gpxtpx:hr>124</gpxtpx:hr>
          </gpxtpx:TrackPointExtension>
        </extensions>
      </trkpt>
      <trkpt lat="31.219057420947085" lon="121.26282539999384">
        <ele>4.0</ele>
        <time>2026-07-30T21:28:18Z</time>
        <extensions>
          <gpxtpx:TrackPointExtension>
            <gpxtpx:hr>124</gpxtpx:hr>
          </gpxtpx:TrackPointExtension>
        </extensions>
      </trkpt>
      <trkpt lat="31.219093351754946" lon="121.26281135083967">
        <ele>4.0</ele>
        <time>2026-07-30T21:28:20Z</time>
        <extensions>
          <gpxtpx:TrackPointExtension>
            <gpxtpx:hr>127</gpxtpx:hr>
          </gpxtpx:TrackPointExtension>
        </extensions>
      </trkpt>
      <trkpt lat="31.21914064355084" lon="121.26279281626452">
        <ele>4.0</ele>
        <time>2026-07-30T21:28:21Z</time>
        <extensions>
          <gpxtpx:TrackPointExtension>
            <gpxtpx:hr>127</gpxtpx:hr>
          </gpxtpx:TrackPointExtension>
        </extensions>
      </trkpt>
      <trkpt lat="31.219180168954466" lon="121.26277731697006">
        <ele>4.0</ele>
        <time>2026-07-30T21:28:22Z</time>
        <extensions>
          <gpxtpx:TrackPointExtension>
            <gpxtpx:hr>127</gpxtpx:hr>
          </gpxtpx:TrackPointExtension>
        </extensions>
      </trkpt>
      <trkpt lat="31.219232012990098" lon="121.262756979138">
        <ele>4.0</ele>
        <time>2026-07-30T21:28:24Z</time>
        <extensions>
          <gpxtpx:TrackPointExtension>
            <gpxtpx:hr>129</gpxtpx:hr>
          </gpxtpx:TrackPointExtension>
        </extensions>
      </trkpt>
      <trkpt lat="31.21926997855604" lon="121.2627420844873">
        <ele>4.9</ele>
        <time>2026-07-30T21:28:25Z</time>
        <extensions>
          <gpxtpx:TrackPointExtension>
            <gpxtpx:hr>129</gpxtpx:hr>
          </gpxtpx:TrackPointExtension>
        </extensions>
      </trkpt>
      <trkpt lat="31.21930350527832" lon="121.262728930518">
        <ele>4.9</ele>
        <time>2026-07-30T21:28:26Z</time>
        <extensions>
          <gpxtpx:TrackPointExtension>
            <gpxtpx:hr>129</gpxtpx:hr>
          </gpxtpx:TrackPointExtension>
        </extensions>
      </trkpt>
      <trkpt lat="31.219333733532988" lon="121.2627170703325">
        <ele>4.9</ele>
        <time>2026-07-30T21:28:28Z</time>
        <extensions>
          <gpxtpx:TrackPointExtension>
            <gpxtpx:hr>129</gpxtpx:hr>
          </gpxtpx:TrackPointExtension>
        </extensions>
      </trkpt>
      <trkpt lat="31.21936056588342" lon="121.26270654239708">
        <ele>4.9</ele>
        <time>2026-07-30T21:28:29Z</time>
        <extensions>
          <gpxtpx:TrackPointExtension>
            <gpxtpx:hr>131</gpxtpx:hr>
          </gpxtpx:TrackPointExtension>
        </extensions>
      </trkpt>
      <trkpt lat="31.219386449467553" lon="121.26269638664287">
        <ele>4.9</ele>
        <time>2026-07-30T21:28:30Z</time>
        <extensions>
          <gpxtpx:TrackPointExtension>
            <gpxtpx:hr>131</gpxtpx:hr>
          </gpxtpx:TrackPointExtension>
        </extensions>
      </trkpt>
      <trkpt lat="31.219413977927672" lon="121.26268558545841">
        <ele>4.9</ele>
        <time>2026-07-30T21:28:31Z</time>
        <extensions>
          <gpxtpx:TrackPointExtension>
            <gpxtpx:hr>131</gpxtpx:hr>
          </gpxtpx:TrackPointExtension>
        </extensions>
      </trkpt>
      <trkpt lat="31.219441915020628" lon="121.26267462392035">
        <ele>4.9</ele>
        <time>2026-07-30T21:28:32Z</time>
        <extensions>
          <gpxtpx:TrackPointExtension>
            <gpxtpx:hr>131</gpxtpx:hr>
          </gpxtpx:TrackPointExtension>
        </extensions>
      </trkpt>
      <trkpt lat="31.219480202112734" lon="121.26265960138441">
        <ele>4.9</ele>
        <time>2026-07-30T21:28:33Z</time>
        <extensions>
          <gpxtpx:TrackPointExtension>
            <gpxtpx:hr>131</gpxtpx:hr>
          </gpxtpx:TrackPointExtension>
        </extensions>
      </trkpt>
      <trkpt lat="31.21952315937697" lon="121.26264274641647">
        <ele>4.4</ele>
        <time>2026-07-30T21:28:36Z</time>
        <extensions>
          <gpxtpx:TrackPointExtension>
            <gpxtpx:hr>132</gpxtpx:hr>
          </gpxtpx:TrackPointExtension>
        </extensions>
      </trkpt>
      <trkpt lat="31.219572013523646" lon="121.26262357769299">
        <ele>4.4</ele>
        <time>2026-07-30T21:28:38Z</time>
        <extensions>
          <gpxtpx:TrackPointExtension>
            <gpxtpx:hr>132</gpxtpx:hr>
          </gpxtpx:TrackPointExtension>
        </extensions>
      </trkpt>
      <trkpt lat="31.21962229439983" lon="121.26260384914806">
        <ele>4.4</ele>
        <time>2026-07-30T21:28:39Z</time>
        <extensions>
          <gpxtpx:TrackPointExtension>
            <gpxtpx:hr>133</gpxtpx:hr>
          </gpxtpx:TrackPointExtension>
        </extensions>
      </trkpt>
      <trkpt lat="31.21967480593551" lon="121.26258324534432">
        <ele>4.4</ele>
        <time>2026-07-30T21:28:41Z</time>
        <extensions>
          <gpxtpx:TrackPointExtension>
            <gpxtpx:hr>133</gpxtpx:hr>
          </gpxtpx:TrackPointExtension>
        </extensions>
      </trkpt>
      <trkpt lat="31.21971071161499" lon="121.26256915712075">
        <ele>4.4</ele>
        <time>2026-07-30T21:28:42Z</time>
        <extensions>
          <gpxtpx:TrackPointExtension>
            <gpxtpx:hr>133</gpxtpx:hr>
          </gpxtpx:TrackPointExtension>
        </extensions>
      </trkpt>
      <trkpt lat="31.219755503464125" lon="121.26255158223778">
        <ele>4.4</ele>
        <time>2026-07-30T21:28:44Z</time>
        <extensions>
          <gpxtpx:TrackPointExtension>
            <gpxtpx:hr>135</gpxtpx:hr>
          </gpxtpx:TrackPointExtension>
        </extensions>
      </trkpt>
      <trkpt lat="31.21980374782351" lon="121.2625326526824">
        <ele>4.9</ele>
        <time>2026-07-30T21:28:46Z</time>
        <extensions>
          <gpxtpx:TrackPointExtension>
            <gpxtpx:hr>135</gpxtpx:hr>
          </gpxtpx:TrackPointExtension>
        </extensions>
      </trkpt>
      <trkpt lat="31.219839647963695" lon="121.26251856659454">
        <ele>4.9</ele>
        <time>2026-07-30T21:28:48Z</time>
        <extensions>
          <gpxtpx:TrackPointExtension>
            <gpxtpx:hr>135</gpxtpx:hr>
          </gpxtpx:TrackPointExtension>
        </extensions>
      </trkpt>
      <trkpt lat="31.219868555077333" lon="121.2625072243431">
        <ele>4.9</ele>
        <time>2026-07-30T21:28:49Z</time>
        <extensions>
          <gpxtpx:TrackPointExtension>
            <gpxtpx:hr>136</gpxtpx:hr>
          </gpxtpx:TrackPointExtension>
        </extensions>
      </trkpt>
      <trkpt lat="31.219894672097052" lon="121.2624969768318">
        <ele>4.9</ele>
        <time>2026-07-30T21:28:50Z</time>
        <extensions>
          <gpxtpx:TrackPointExtension>
            <gpxtpx:hr>136</gpxtpx:hr>
          </gpxtpx:TrackPointExtension>
        </extensions>
      </trkpt>
      <trkpt lat="31.219937083269954" lon="121.2624803359866">
        <ele>4.9</ele>
        <time>2026-07-30T21:28:51Z</time>
        <extensions>
          <gpxtpx:TrackPointExtension>
            <gpxtpx:hr>136</gpxtpx:hr>
          </gpxtpx:TrackPointExtension>
        </extensions>
      </trkpt>
      <trkpt lat="31.219969597164987" lon="121.26246757852014">
        <ele>4.9</ele>
        <time>2026-07-30T21:28:52Z</time>
        <extensions>
          <gpxtpx:TrackPointExtension>
            <gpxtpx:hr>136</gpxtpx:hr>
          </gpxtpx:TrackPointExtension>
        </extensions>
      </trkpt>
      <trkpt lat="31.219997341634247" lon="121.26245669242493">
        <ele>4.9</ele>
        <time>2026-07-30T21:28:53Z</time>
        <extensions>
          <gpxtpx:TrackPointExtension>
            <gpxtpx:hr>136</gpxtpx:hr>
          </gpxtpx:TrackPointExtension>
        </extensions>
      </trkpt>
      <trkpt lat="31.220021204453765" lon="121.26244732936729">
        <ele>4.9</ele>
        <time>2026-07-30T21:28:54Z</time>
        <extensions>
          <gpxtpx:TrackPointExtension>
            <gpxtpx:hr>137</gpxtpx:hr>
          </gpxtpx:TrackPointExtension>
        </extensions>
      </trkpt>
      <trkpt lat="31.220045516632123" lon="121.2624377899899">
        <ele>6.4</ele>
        <time>2026-07-30T21:28:55Z</time>
        <extensions>
          <gpxtpx:TrackPointExtension>
            <gpxtpx:hr>137</gpxtpx:hr>
          </gpxtpx:TrackPointExtension>
        </extensions>
      </trkpt>
      <trkpt lat="31.22007097510373" lon="121.26242780083591">
        <ele>6.4</ele>
        <time>2026-07-30T21:28:56Z</time>
        <extensions>
          <gpxtpx:TrackPointExtension>
            <gpxtpx:hr>137</gpxtpx:hr>
          </gpxtpx:TrackPointExtension>
        </extensions>
      </trkpt>
      <trkpt lat="31.220112069073437" lon="121.26241167676207">
        <ele>6.4</ele>
        <time>2026-07-30T21:28:58Z</time>
        <extensions>
          <gpxtpx:TrackPointExtension>
            <gpxtpx:hr>137</gpxtpx:hr>
          </gpxtpx:TrackPointExtension>
        </extensions>
      </trkpt>
      <trkpt lat="31.220143722359932" lon="121.2623992569273">
        <ele>6.4</ele>
        <time>2026-07-30T21:28:59Z</time>
        <extensions>
          <gpxtpx:TrackPointExtension>
            <gpxtpx:hr>138</gpxtpx:hr>
          </gpxtpx:TrackPointExtension>
        </extensions>
      </trkpt>
      <trkpt lat="31.22018463688517" lon="121.26238320323802">
        <ele>6.4</ele>
        <time>2026-07-30T21:29:01Z</time>
        <extensions>
          <gpxtpx:TrackPointExtension>
            <gpxtpx:hr>138</gpxtpx:hr>
          </gpxtpx:TrackPointExtension>
        </extensions>
      </trkpt>
      <trkpt lat="31.220215117918304" lon="121.2623712433437">
        <ele>6.4</ele>
        <time>2026-07-30T21:29:03Z</time>
        <extensions>
          <gpxtpx:TrackPointExtension>
            <gpxtpx:hr>138</gpxtpx:hr>
          </gpxtpx:TrackPointExtension>
        </extensions>
      </trkpt>
      <trkpt lat="31.220254053298472" lon="121.26235596619198">
        <ele>5.5</ele>
        <time>2026-07-30T21:29:05Z</time>
        <extensions>
          <gpxtpx:TrackPointExtension>
            <gpxtpx:hr>140</gpxtpx:hr>
          </gpxtpx:TrackPointExtension>
        </extensions>
      </trkpt>
      <trkpt lat="31.220277007060137" lon="121.26234695977357">
        <ele>5.5</ele>
        <time>2026-07-30T21:29:06Z</time>
        <extensions>
          <gpxtpx:TrackPointExtension>
            <gpxtpx:hr>140</gpxtpx:hr>
          </gpxtpx:TrackPointExtension>
        </extensions>
      </trkpt>
      <trkpt lat="31.22029185398914" lon="121.2623411342488">
        <ele>5.5</ele>
        <time>2026-07-30T21:29:07Z</time>
        <extensions>
          <gpxtpx:TrackPointExtension>
            <gpxtpx:hr>140</gpxtpx:hr>
          </gpxtpx:TrackPointExtension>
        </extensions>
      </trkpt>
      <trkpt lat="31.220309362788058" lon="121.2623342642775">
        <ele>5.5</ele>
        <time>2026-07-30T21:29:08Z</time>
        <extensions>
          <gpxtpx:TrackPointExtension>
            <gpxtpx:hr>140</gpxtpx:hr>
          </gpxtpx:TrackPointExtension>
        </extensions>
      </trkpt>
      <trkpt lat="31.22035489390358" lon="121.26231639910792">
        <ele>5.5</ele>
        <time>2026-07-30T21:29:10Z</time>
        <extensions>
          <gpxtpx:TrackPointExtension>
            <gpxtpx:hr>140</gpxtpx:hr>
          </gpxtpx:TrackPointExtension>
        </extensions>
      </trkpt>
      <trkpt lat="31.220404281923127" lon="121.26229702057513">
        <ele>5.5</ele>
        <time>2026-07-30T21:29:12Z</time>
        <extensions>
          <gpxtpx:TrackPointExtension>
            <gpxtpx:hr>140</gpxtpx:hr>
          </gpxtpx:TrackPointExtension>
        </extensions>
      </trkpt>
      <trkpt lat="31.220438848881074" lon="121.26228345741714">
        <ele>5.5</ele>
        <time>2026-07-30T21:29:13Z</time>
        <extensions>
          <gpxtpx:TrackPointExtension>
            <gpxtpx:hr>140</gpxtpx:hr>
          </gpxtpx:TrackPointExtension>
        </extensions>
      </trkpt>
      <trkpt lat="31.220467841484194" lon="121.26227208148069">
        <ele>5.5</ele>
        <time>2026-07-30T21:29:14Z</time>
        <extensions>
          <gpxtpx:TrackPointExtension>
            <gpxtpx:hr>141</gpxtpx:hr>
          </gpxtpx:TrackPointExtension>
        </extensions>
      </trkpt>
      <trkpt lat="31.22049516626153" lon="121.26226135994902">
        <ele>6.2</ele>
        <time>2026-07-30T21:29:15Z</time>
        <extensions>
          <gpxtpx:TrackPointExtension>
            <gpxtpx:hr>141</gpxtpx:hr>
          </gpxtpx:TrackPointExtension>
        </extensions>
      </trkpt>
      <trkpt lat="31.22052038455952" lon="121.26225146493964">
        <ele>6.2</ele>
        <time>2026-07-30T21:29:16Z</time>
        <extensions>
          <gpxtpx:TrackPointExtension>
            <gpxtpx:hr>141</gpxtpx:hr>
          </gpxtpx:TrackPointExtension>
        </extensions>
      </trkpt>
      <trkpt lat="31.220546232774044" lon="121.2622413227619">
        <ele>6.2</ele>
        <time>2026-07-30T21:29:17Z</time>
        <extensions>
          <gpxtpx:TrackPointExtension>
            <gpxtpx:hr>141</gpxtpx:hr>
          </gpxtpx:TrackPointExtension>
        </extensions>
      </trkpt>
      <trkpt lat="31.220571327924574" lon="121.26223147606196">
        <ele>6.2</ele>
        <time>2026-07-30T21:29:18Z</time>
        <extensions>
          <gpxtpx:TrackPointExtension>
            <gpxtpx:hr>141</gpxtpx:hr>
          </gpxtpx:TrackPointExtension>
        </extensions>
      </trkpt>
      <trkpt lat="31.2205969761681" lon="121.26222141233706">
        <ele>6.2</ele>
        <time>2026-07-30T21:29:19Z</time>
        <extensions>
          <gpxtpx:TrackPointExtension>
            <gpxtpx:hr>103</gpxtpx:hr>
          </gpxtpx:TrackPointExtension>
        </extensions>
      </trkpt>
      <trkpt lat="31.220620961269287" lon="121.26221200118249">
        <ele>6.2</ele>
        <time>2026-07-30T21:29:21Z</time>
        <extensions>
          <gpxtpx:TrackPointExtension>
            <gpxtpx:hr>103</gpxtpx:hr>
          </gpxtpx:TrackPointExtension>
        </extensions>
      </trkpt>
      <trkpt lat="31.22063471579116" lon="121.26220660424957">
        <ele>6.2</ele>
        <time>2026-07-30T21:29:22Z</time>
        <extensions>
          <gpxtpx:TrackPointExtension>
            <gpxtpx:hr>103</gpxtpx:hr>
          </gpxtpx:TrackPointExtension>
        </extensions>
      </trkpt>
      <trkpt lat="31.22075749672509" lon="121.26215842799074">
        <ele>1.6</ele>
        <time>2026-07-30T21:30:41Z</time>
        <extensions>
          <gpxtpx:TrackPointExtension>
            <gpxtpx:hr>154</gpxtpx:hr>
          </gpxtpx:TrackPointExtension>
        </extensions>
      </trkpt>
      <trkpt lat="31.22081996932803" lon="121.2621339152102">
        <ele>1.6</ele>
        <time>2026-07-30T21:30:42Z</time>
      </trkpt>
      <trkpt lat="31.220857016677865" lon="121.26211937868611">
        <ele>1.6</ele>
        <time>2026-07-30T21:30:43Z</time>
      </trkpt>
      <trkpt lat="31.220884984474246" lon="121.26210839739782">
        <ele>1.6</ele>
        <time>2026-07-30T21:30:44Z</time>
      </trkpt>
      <trkpt lat="31.22094859729245" lon="121.26208340146708">
        <ele>1.6</ele>
        <time>2026-07-30T21:30:46Z</time>
      </trkpt>
      <trkpt lat="31.220993594369773" lon="121.26206571913461">
        <ele>1.6</ele>
        <time>2026-07-30T21:30:47Z</time>
      </trkpt>
      <trkpt lat="31.221046092860867" lon="121.26204508757911">
        <ele>1.6</ele>
        <time>2026-07-30T21:30:49Z</time>
      </trkpt>
      <trkpt lat="31.221084843770132" lon="121.26202985846497">
        <ele>1.6</ele>
        <time>2026-07-30T21:30:51Z</time>
      </trkpt>
      <trkpt lat="31.221130189403166" lon="121.26201203734739">
        <ele>1.6</ele>
        <time>2026-07-30T21:30:52Z</time>
      </trkpt>
      <trkpt lat="31.221163668868904" lon="121.26199887965039">
        <ele>1.6</ele>
        <time>2026-07-30T21:30:54Z</time>
      </trkpt>
      <trkpt lat="31.221201123151815" lon="121.26198415976285">
        <ele>1.6</ele>
        <time>2026-07-30T21:30:55Z</time>
      </trkpt>
      <trkpt lat="31.221224067699957" lon="121.26197518127745">
        <ele>1.6</ele>
        <time>2026-07-30T21:30:56Z</time>
      </trkpt>
      <trkpt lat="31.221246565359962" lon="121.26196653360046">
        <ele>1.6</ele>
        <time>2026-07-30T21:30:57Z</time>
      </trkpt>
      <trkpt lat="31.220419270714135" lon="121.26229114173582">
        <ele>1.6</ele>
        <time>2026-07-30T22:00:10Z</time>
      </trkpt>
      <trkpt lat="31.220063400909574" lon="121.26243077374383">
        <ele>1.6</ele>
        <time>2026-07-30T22:00:11Z</time>
      </trkpt>
      <trkpt lat="31.21988602727759" lon="121.26250036922977">
        <ele>1.6</ele>
        <time>2026-07-30T22:00:12Z</time>
      </trkpt>
      <trkpt lat="31.219806874176673" lon="121.26253142618816">
        <ele>1.6</ele>
        <time>2026-07-30T22:00:13Z</time>
      </trkpt>
      <trkpt lat="31.219747732006766" lon="121.26255463159018">
        <ele>1.6</ele>
        <time>2026-07-30T22:00:15Z</time>
      </trkpt>
      <trkpt lat="31.219691636591147" lon="121.26257664157737">
        <ele>1.6</ele>
        <time>2026-07-30T22:00:16Z</time>
      </trkpt>
      <trkpt lat="31.219635604768357" lon="121.2625986266135">
        <ele>1.6</ele>
        <time>2026-07-30T22:00:18Z</time>
      </trkpt>
      <trkpt lat="31.21957623420751" lon="121.26262192164474">
        <ele>1.6</ele>
        <time>2026-07-30T22:00:20Z</time>
      </trkpt>
      <trkpt lat="31.219531304872813" lon="121.2626395504034">
        <ele>1.6</ele>
        <time>2026-07-30T22:00:21Z</time>
      </trkpt>
      <trkpt lat="31.21947744018208" lon="121.2626606850762">
        <ele>1.6</ele>
        <time>2026-07-30T22:00:23Z</time>
      </trkpt>
      <trkpt lat="31.219420309963525" lon="121.26268310100627">
        <ele>1.6</ele>
        <time>2026-07-30T22:00:25Z</time>
      </trkpt>
      <trkpt lat="31.219378610411127" lon="121.26269946245785">
        <ele>1.6</ele>
        <time>2026-07-30T22:00:26Z</time>
      </trkpt>
      <trkpt lat="31.21932701205626" lon="121.2627197078353">
        <ele>1.6</ele>
        <time>2026-07-30T22:00:28Z</time>
      </trkpt>
      <trkpt lat="31.219271449615924" lon="121.26274150855619">
        <ele>1.6</ele>
        <time>2026-07-30T22:00:30Z</time>
      </trkpt>
      <trkpt lat="31.219231230454255" lon="121.26275728910585">
        <ele>1.6</ele>
        <time>2026-07-30T22:00:31Z</time>
      </trkpt>
      <trkpt lat="31.219197829378444" lon="121.26277039447432">
        <ele>1.6</ele>
        <time>2026-07-30T22:00:32Z</time>
      </trkpt>
      <trkpt lat="31.219166702154798" lon="121.26278260765768">
        <ele>1.6</ele>
        <time>2026-07-30T22:00:33Z</time>
      </trkpt>
      <trkpt lat="31.219136700043972" lon="121.2627943793805">
        <ele>1.6</ele>
        <time>2026-07-30T22:00:34Z</time>
      </trkpt>
      <trkpt lat="31.219092181489128" lon="121.26281184680757">
        <ele>1.6</ele>
        <time>2026-07-30T22:00:36Z</time>
      </trkpt>
      <trkpt lat="31.219057224967415" lon="121.2628255624368">
        <ele>1.6</ele>
        <time>2026-07-30T22:00:37Z</time>
      </trkpt>
      <trkpt lat="31.219012182294353" lon="121.26284323547922">
        <ele>1.6</ele>
        <time>2026-07-30T22:00:40Z</time>
      </trkpt>
      <trkpt lat="31.21896442284168" lon="121.26286197446528">
        <ele>1.6</ele>
        <time>2026-07-30T22:00:41Z</time>
      </trkpt>
      <trkpt lat="31.218930424134626" lon="121.26287531424877">
        <ele>1.6</ele>
        <time>2026-07-30T22:00:42Z</time>
      </trkpt>
      <trkpt lat="31.21889269731383" lon="121.26289011678955">
        <ele>1.6</ele>
        <time>2026-07-30T22:00:44Z</time>
      </trkpt>
      <trkpt lat="31.21886945243862" lon="121.26289923717098">
        <ele>1.6</ele>
        <time>2026-07-30T22:00:45Z</time>
      </trkpt>
      <trkpt lat="31.21885610213484" lon="121.26290447530693">
        <ele>1.6</ele>
        <time>2026-07-30T22:00:47Z</time>
      </trkpt>
      <trkpt lat="31.218848345839373" lon="121.26290751857262">
        <ele>1.6</ele>
        <time>2026-07-30T22:00:48Z</time>
      </trkpt>
      <trkpt lat="31.21884041603755" lon="121.26291062991487">
        <ele>1.6</ele>
        <time>2026-07-30T22:00:49Z</time>
      </trkpt>
      <trkpt lat="31.218774827195663" lon="121.26272788834869">
        <ele>1.6</ele>
        <time>2026-07-30T22:00:51Z</time>
      </trkpt>
      <trkpt lat="31.218723828120993" lon="121.26265269791845">
        <ele>1.6</ele>
        <time>2026-07-30T22:00:52Z</time>
      </trkpt>
      <trkpt lat="31.218675112364792" lon="121.26263288200495">
        <ele>1.6</ele>
        <time>2026-07-30T22:00:54Z</time>
      </trkpt>
      <trkpt lat="31.218624529894697" lon="121.2626385943437">
        <ele>1.6</ele>
        <time>2026-07-30T22:00:56Z</time>
      </trkpt>
      <trkpt lat="31.218589095737332" lon="121.26265016237282">
        <ele>1.6</ele>
        <time>2026-07-30T22:00:57Z</time>
      </trkpt>
      <trkpt lat="31.218557332146325" lon="121.26266083340137">
        <ele>1.6</ele>
        <time>2026-07-30T22:00:58Z</time>
      </trkpt>
      <trkpt lat="31.218511195807913" lon="121.26267681345246">
        <ele>1.6</ele>
        <time>2026-07-30T22:01:00Z</time>
      </trkpt>
      <trkpt lat="31.218474257878277" lon="121.26269109045195">
        <ele>1.6</ele>
        <time>2026-07-30T22:01:01Z</time>
      </trkpt>
      <trkpt lat="31.21842817587762" lon="121.26270577467804">
        <ele>1.6</ele>
        <time>2026-07-30T22:01:03Z</time>
      </trkpt>
      <trkpt lat="31.21839468283285" lon="121.26271323109985">
        <ele>1.6</ele>
        <time>2026-07-30T22:01:04Z</time>
      </trkpt>
      <trkpt lat="31.218366605051333" lon="121.2627175784133">
        <ele>1.6</ele>
        <time>2026-07-30T22:01:05Z</time>
      </trkpt>
      <trkpt lat="31.218340290853583" lon="121.26271489484598">
        <ele>1.6</ele>
        <time>2026-07-30T22:01:07Z</time>
      </trkpt>
    </trkseg>
  </trk>
</gpx>